{"type": "FeatureCollection", "features": [ {"type": "Feature", "properties": {"norad_id": 66910, "name": "1998-067XW", "group": "last-30-days", "lat": -19.423393318332987, "lon": 53.2309154544183, "alt_km": 407.5294441228725, "timestamp": "2025-12-27T09:28:55.185120+00:00", "meta": {"OBJECT_NAME": "1998-067XW", "OBJECT_ID": "1998-067XW", "EPOCH": "2025-12-26T15:03:47.074752", "MEAN_MOTION": 15.53436341, "ECCENTRICITY": 0.0003732, "INCLINATION": 51.6301, "RA_OF_ASC_NODE": 73.2786, "ARG_OF_PERICENTER": 284.7259, "MEAN_ANOMALY": 75.3317, "EPHEMERIS_TYPE": 0, "CLASSIFICATION_TYPE": "U", "NORAD_CAT_ID": 66910, "ELEMENT_SET_NO": 999, "REV_AT_EPOCH": 377, "BSTAR": 0.0011547, "MEAN_MOTION_DOT": 0.00074776, "MEAN_MOTION_DDOT": 0}, "tle": {"line1": "1 66910U 98067XW  25360.62762818  .00074776  00000+0  11547-2 0  9998", "line2": "2 66910  51.6301  73.2786 0003732 284.7259  75.3317 15.53436341  3773"}}, "geometry": {"type": "Point", "coordinates": [53.2309154544183, -19.423393318332987]}}, {"type": "Feature", "properties": {"norad_id": 66911, "name": "1998-067XX", "group": "last-30-days", "lat": 0.6009084411616734, "lon": 69.87671723125288, "alt_km": 404.4063083986339, "timestamp": "2025-12-27T09:28:55.185132+00:00", "meta": {"OBJECT_NAME": "1998-067XX", "OBJECT_ID": "1998-067XX", "EPOCH": "2025-12-26T11:52:19.081056", "MEAN_MOTION": 15.5396914, "ECCENTRICITY": 0.0003493, "INCLINATION": 51.6301, "RA_OF_ASC_NODE": 73.8915, "ARG_OF_PERICENTER": 292.742, "MEAN_ANOMALY": 67.3201, "EPHEMERIS_TYPE": 0, "CLASSIFICATION_TYPE": "U", "NORAD_CAT_ID": 66911, "ELEMENT_SET_NO": 999, "REV_AT_EPOCH": 374, "BSTAR": 0.0011709, "MEAN_MOTION_DOT": 0.00077346, "MEAN_MOTION_DDOT": 0}, "tle": {"line1": "1 66911U 98067XX  25360.49466529  .00077346  00000+0  11709-2 0  9990", "line2": "2 66911  51.6301  73.8915 0003493 292.7420  67.3201 15.53969140  3745"}}, "geometry": {"type": "Point", "coordinates": [69.87671723125288, 0.6009084411616734]}}, {"type": "Feature", "properties": {"norad_id": 66912, "name": "1998-067XY", "group": "last-30-days", "lat": -51.14247215362383, "lon": -9.955183436129804, "alt_km": 411.5171547143191, "timestamp": "2025-12-27T09:28:55.185143+00:00", "meta": {"OBJECT_NAME": "1998-067XY", "OBJECT_ID": "1998-067XY", "EPOCH": "2025-12-26T12:12:45.084960", "MEAN_MOTION": 15.52489248, "ECCENTRICITY": 0.0003823, "INCLINATION": 51.6314, "RA_OF_ASC_NODE": 73.9869, "ARG_OF_PERICENTER": 301.1826, "MEAN_ANOMALY": 58.8789, "EPHEMERIS_TYPE": 0, "CLASSIFICATION_TYPE": "U", "NORAD_CAT_ID": 66912, "ELEMENT_SET_NO": 999, "REV_AT_EPOCH": 374, "BSTAR": 0.00078444, "MEAN_MOTION_DOT": 0.00048771, "MEAN_MOTION_DDOT": 0}, "tle": {"line1": "1 66912U 98067XY  25360.50885515  .00048771  00000+0  78444-3 0  9993", "line2": "2 66912  51.6314  73.9869 0003823 301.1826  58.8789 15.52489248  3742"}}, "geometry": {"type": "Point", "coordinates": [-9.955183436129804, -51.14247215362383]}}, {"type": "Feature", "properties": {"norad_id": 66913, "name": "2025-284A", "group": "last-30-days", "lat": -55.85829719039538, "lon": -54.16994290002041, "alt_km": 537.1595358488439, "timestamp": "2025-12-27T09:28:55.185155+00:00", "meta": {"OBJECT_NAME": "2025-284A", "OBJECT_ID": "2025-284A", "EPOCH": "2025-12-23T02:34:46.438752", "MEAN_MOTION": 15.08893564, "ECCENTRICITY": 0.0013475, "INCLINATION": 80.4035, "RA_OF_ASC_NODE": 116.7336, "ARG_OF_PERICENTER": 259.6514, "MEAN_ANOMALY": 100.3189, "EPHEMERIS_TYPE": 0, "CLASSIFICATION_TYPE": "U", "NORAD_CAT_ID": 66913, "ELEMENT_SET_NO": 999, "REV_AT_EPOCH": 269, "BSTAR": 0.00055263602, "MEAN_MOTION_DOT": 8.748e-05, "MEAN_MOTION_DDOT": 0}, "tle": {"line1": "1 66913U 25284A   25357.10748193  .00008748  00000+0  55264-3 0  9992", "line2": "2 66913  80.4035 116.7336 0013475 259.6514 100.3189 15.08893564  2694"}}, "geometry": {"type": "Point", "coordinates": [-54.16994290002041, -55.85829719039538]}}, {"type": "Feature", "properties": {"norad_id": 66914, "name": "2025-284B", "group": "last-30-days", "lat": -56.878386267125094, "lon": -53.78361838513583, "alt_km": 511.04875932702635, "timestamp": "2025-12-27T09:28:55.185165+00:00", "meta": {"OBJECT_NAME": "2025-284B", "OBJECT_ID": "2025-284B", "EPOCH": "2025-12-16T06:51:11.417184", "MEAN_MOTION": 15.18985981, "ECCENTRICITY": 0.00081793, "INCLINATION": 80.4045, "RA_OF_ASC_NODE": 125.2713, "ARG_OF_PERICENTER": 234.9626, "MEAN_ANOMALY": 125.0834, "EPHEMERIS_TYPE": 0, "CLASSIFICATION_TYPE": "U", "NORAD_CAT_ID": 66914, "ELEMENT_SET_NO": 999, "REV_AT_EPOCH": 166, "BSTAR": 0.00038444995, "MEAN_MOTION_DOT": 8.068e-05, "MEAN_MOTION_DDOT": 0}, "tle": {"line1": "1 66914U 25284B   25350.28554881  .00008068  00000+0  38445-3 0  9991", "line2": "2 66914  80.4045 125.2713 0008179 234.9626 125.0834 15.18985981  1668"}}, "geometry": {"type": "Point", "coordinates": [-53.78361838513583, -56.878386267125094]}}, {"type": "Feature", "properties": {"norad_id": 66915, "name": "HULIANWANG DIGUI-105", "group": "last-30-days", "lat": 35.81645580726601, "lon": -159.6786751060826, "alt_km": 886.3325657659625, "timestamp": "2025-12-27T09:28:55.185175+00:00", "meta": {"OBJECT_NAME": "HULIANWANG DIGUI-105", "OBJECT_ID": "2025-285A", "EPOCH": "2025-12-27T05:26:33.726336", "MEAN_MOTION": 14.02007322, "ECCENTRICITY": 0.0006613, "INCLINATION": 50.0052, "RA_OF_ASC_NODE": 58.2922, "ARG_OF_PERICENTER": 334.1406, "MEAN_ANOMALY": 25.9167, "EPHEMERIS_TYPE": 0, "CLASSIFICATION_TYPE": "U", "NORAD_CAT_ID": 66915, "ELEMENT_SET_NO": 999, "REV_AT_EPOCH": 294, "BSTAR": 0.00013598, "MEAN_MOTION_DOT": 5.8e-07, "MEAN_MOTION_DDOT": 0}, "tle": {"line1": "1 66915U 25285A   25361.22677924  .00000058  00000+0  13598-3 0  9996", "line2": "2 66915  50.0052  58.2922 0006613 334.1406  25.9167 14.02007322  2942"}}, "geometry": {"type": "Point", "coordinates": [-159.6786751060826, 35.81645580726601]}}, {"type": "Feature", "properties": {"norad_id": 66916, "name": "HULIANWANG DIGUI-106", "group": "last-30-days", "lat": 26.104899720422647, "lon": -146.66940567017423, "alt_km": 889.268587331756, "timestamp": "2025-12-27T09:28:55.185186+00:00", "meta": {"OBJECT_NAME": "HULIANWANG DIGUI-106", "OBJECT_ID": "2025-285B", "EPOCH": "2025-12-27T03:39:47.277792", "MEAN_MOTION": 14.02345199, "ECCENTRICITY": 0.0009607, "INCLINATION": 50.0169, "RA_OF_ASC_NODE": 58.5941, "ARG_OF_PERICENTER": 330.4912, "MEAN_ANOMALY": 29.5449, "EPHEMERIS_TYPE": 0, "CLASSIFICATION_TYPE": "U", "NORAD_CAT_ID": 66916, "ELEMENT_SET_NO": 999, "REV_AT_EPOCH": 293, "BSTAR": 0.00013579, "MEAN_MOTION_DOT": 5.9e-07, "MEAN_MOTION_DDOT": 0}, "tle": {"line1": "1 66916U 25285B   25361.15263053  .00000059  00000+0  13579-3 0  9993", "line2": "2 66916  50.0169  58.5941 0009607 330.4912  29.5449 14.02345199  2932"}}, "geometry": {"type": "Point", "coordinates": [-146.66940567017423, 26.104899720422647]}}, {"type": "Feature", "properties": {"norad_id": 66917, "name": "HULIANWANG DIGUI-107", "group": "last-30-days", "lat": 19.464178665796997, "lon": -139.7059946717662, "alt_km": 887.9151644951235, "timestamp": "2025-12-27T09:28:55.185197+00:00", "meta": {"OBJECT_NAME": "HULIANWANG DIGUI-107", "OBJECT_ID": "2025-285C", "EPOCH": "2025-12-27T05:19:45.901056", "MEAN_MOTION": 14.02324482, "ECCENTRICITY": 0.0006143, "INCLINATION": 50.0039, "RA_OF_ASC_NODE": 58.2564, "ARG_OF_PERICENTER": 334.0629, "MEAN_ANOMALY": 25.9966, "EPHEMERIS_TYPE": 0, "CLASSIFICATION_TYPE": "U", "NORAD_CAT_ID": 66917, "ELEMENT_SET_NO": 999, "REV_AT_EPOCH": 294, "BSTAR": 0.00019339, "MEAN_MOTION_DOT": 1.47e-06, "MEAN_MOTION_DDOT": 0}, "tle": {"line1": "1 66917U 25285C   25361.22205904  .00000147  00000+0  19339-3 0  9991", "line2": "2 66917  50.0039  58.2564 0006143 334.0629  25.9966 14.02324482  2941"}}, "geometry": {"type": "Point", "coordinates": [-139.7059946717662, 19.464178665796997]}}, {"type": "Feature", "properties": {"norad_id": 66918, "name": "HULIANWANG DIGUI-108", "group": "last-30-days", "lat": 17.10705097829046, "lon": -137.4166126294952, "alt_km": 887.2535935388532, "timestamp": "2025-12-27T09:28:55.185207+00:00", "meta": {"OBJECT_NAME": "HULIANWANG DIGUI-108", "OBJECT_ID": "2025-285D", "EPOCH": "2025-12-27T05:18:52.389216", "MEAN_MOTION": 14.02455975, "ECCENTRICITY": 0.0005393, "INCLINATION": 50.0071, "RA_OF_ASC_NODE": 58.2614, "ARG_OF_PERICENTER": 329.7125, "MEAN_ANOMALY": 30.3467, "EPHEMERIS_TYPE": 0, "CLASSIFICATION_TYPE": "U", "NORAD_CAT_ID": 66918, "ELEMENT_SET_NO": 999, "REV_AT_EPOCH": 294, "BSTAR": 5.2834e-05, "MEAN_MOTION_DOT": -6.9e-07, "MEAN_MOTION_DDOT": 0}, "tle": {"line1": "1 66918U 25285D   25361.22143969 -.00000069  00000+0  52834-4 0  9996", "line2": "2 66918  50.0071  58.2614 0005393 329.7125  30.3467 14.02455975  2940"}}, "geometry": {"type": "Point", "coordinates": [-137.4166126294952, 17.10705097829046]}}, {"type": "Feature", "properties": {"norad_id": 66919, "name": "HULIANWANG DIGUI-109", "group": "last-30-days", "lat": 9.40093413374265, "lon": -130.4468920279795, "alt_km": 889.0314080199896, "timestamp": "2025-12-27T09:28:55.185217+00:00", "meta": {"OBJECT_NAME": "HULIANWANG DIGUI-109", "OBJECT_ID": "2025-285E", "EPOCH": "2025-12-27T05:15:58.491072", "MEAN_MOTION": 14.02596481, "ECCENTRICITY": 0.0006895, "INCLINATION": 50.0087, "RA_OF_ASC_NODE": 58.2555, "ARG_OF_PERICENTER": 342.3929, "MEAN_ANOMALY": 17.6735, "EPHEMERIS_TYPE": 0, "CLASSIFICATION_TYPE": "U", "NORAD_CAT_ID": 66919, "ELEMENT_SET_NO": 999, "REV_AT_EPOCH": 294, "BSTAR": 0.00032054, "MEAN_MOTION_DOT": 3.46e-06, "MEAN_MOTION_DDOT": 0}, "tle": {"line1": "1 66919U 25285E   25361.21942698  .00000346  00000+0  32054-3 0  9990", "line2": "2 66919  50.0087  58.2555 0006895 342.3929  17.6735 14.02596481  2947"}}, "geometry": {"type": "Point", "coordinates": [-130.4468920279795, 9.40093413374265]}}]}